EUTELSAT 7A             
1 28187U 04008A   25356.73479448  .00000121  00000+0  00000+0 0  9997
2 28187   5.3816  74.1382 0000906 205.5260 297.1794  1.00271140 79585
EUTELSAT 174A           
1 28924U 05052A   25356.44037081  .00000028  00000+0  00000+0 0  9993
2 28924   3.7703  78.7408 0005858 195.0386 149.9989  1.00270010 50554
EUTELSAT HOTBIRD 13B    
1 29270U 06032A   25356.76911470  .00000177  00000+0  00000+0 0  9990
2 29270   1.2050  84.2891 0003525 183.6112 133.6644  1.00274775 45536
EUTELSAT HOTBIRD 13C    
1 33459U 08065A   25356.75256126 -.00000263  00000+0  00000+0 0  9998
2 33459   2.4957  81.3128 0003473 185.2473  45.6039  1.00270547 45577
EUTELSAT 36B            
1 36101U 09065A   25356.55859998  .00000134  00000+0  00000+0 0  9996
2 36101   0.0537  39.7753 0005657 230.9143  72.2453  1.00271065 58937
EUTELSAT KA-SAT 9A      
1 37258U 10069A   25356.16294589  .00000082  00000+0  00000+0 0  9994
2 37258   0.0498 338.8583 0001291 200.0639 339.7056  1.00263661 42238
EUTELSAT 7 WEST A       
1 37816U 11051A   25356.26174966 -.00000038  00000+0  00000+0 0  9995
2 37816   0.0642 344.8076 0005196 244.0638 309.1268  1.00271304 52104
EUTELSAT 16A            
1 37836U 11057A   25356.76573469  .00000125  00000+0  00000+0 0  9995
2 37836   0.0577 343.3213 0005860 289.9456 109.9537  1.00270217  5558
